[{"OBJECT_NAME":"CONNECTA IOT-16","OBJECT_ID":"2026-004AD","EPOCH":"2026-03-09T22:28:21.027072","MEAN_MOTION":15.16909547,"ECCENTRICITY":0.00029488,"INCLINATION":97.4598,"RA_OF_ASC_NODE":69.3831,"ARG_OF_PERICENTER":354.609,"MEAN_ANOMALY":5.5111,"EPHEMERIS_TYPE":0,"CLASSIFICATION_TYPE":"U","NORAD_CAT_ID":67390,"ELEMENT_SET_NO":999,"REV_AT_EPOCH":869,"BSTAR":0.00024828447,"MEAN_MOTION_DOT":4.827e-5,"MEAN_MOTION_DDOT":0},{"OBJECT_NAME":"FENGYUN 1C DEB","OBJECT_ID":"1999-025AVL","EPOCH":"2026-03-06T12:53:29.086080","MEAN_MOTION":14.83381217,"ECCENTRICITY":0.01434433,"INCLINATION":98.8652,"RA_OF_ASC_NODE":274.6705,"ARG_OF_PERICENTER":90.518,"MEAN_ANOMALY":301.133,"EPHEMERIS_TYPE":0,"CLASSIFICATION_TYPE":"U","NORAD_CAT_ID":30826,"ELEMENT_SET_NO":999,"REV_AT_EPOCH":1528,"BSTAR":0.00060190522,"MEAN_MOTION_DOT":5.85e-5,"MEAN_MOTION_DDOT":0}]
